{
  "norad_id": 52334,
  "name": "STARLINK-3880",
  "history": [
    {
      "epoch": "2026-03-28T12:32:03.767712Z",
      "apogee_km": 540.7202702271861,
      "perigee_km": 538.7692892076693,
      "latitude_deg": 2.7014428261884312e-05,
      "longitude_deg": 110.62291681573943,
      "height_km": 540.663341061594,
      "semi_major_axis_km": 6917.881779717427,
      "eccentricity": 0.00014101,
      "inclination_deg": 53.2164,
      "raan_deg": 124.5801,
      "arg_perigee_deg": 91.3531,
      "mean_anomaly_deg": 268.7623,
      "mean_motion_rev_day": 15.08839545
    },
    {
      "epoch": "2026-03-29T02:50:31.866432Z",
      "apogee_km": 540.6823404283987,
      "perigee_km": 538.8103611936695,
      "latitude_deg": -1.2374892011739081e-05,
      "longitude_deg": -107.25839127833275,
      "height_km": 540.6493579148506,
      "semi_major_axis_km": 6917.883350811034,
      "eccentricity": 0.0001353,
      "inclination_deg": 53.2161,
      "raan_deg": 121.9035,
      "arg_perigee_deg": 90.4547,
      "mean_anomaly_deg": 269.66,
      "mean_motion_rev_day": 15.08839031
    },
    {
      "epoch": "2026-03-30T05:52:05.519712Z",
      "apogee_km": 540.6971979495465,
      "perigee_km": 538.8058472274706,
      "latitude_deg": 2.5619123176688846e-05,
      "longitude_deg": -158.81300328597445,
      "height_km": 540.679449721049,
      "semi_major_axis_km": 6917.888522588508,
      "eccentricity": 0.0001367,
      "inclination_deg": 53.2165,
      "raan_deg": 116.849,
      "arg_perigee_deg": 91.9592,
      "mean_anomaly_deg": 268.1557,
      "mean_motion_rev_day": 15.08837339
    },
    {
      "epoch": "2026-03-30T10:38:14.820576Z",
      "apogee_km": 540.7068186401511,
      "perigee_km": 538.7859991328396,
      "latitude_deg": -1.4921599316050705e-05,
      "longitude_deg": 128.56004705235014,
      "height_km": 540.6603905293797,
      "semi_major_axis_km": 6917.883408886495,
      "eccentricity": 0.00013883,
      "inclination_deg": 53.2167,
      "raan_deg": 115.9567,
      "arg_perigee_deg": 91.097,
      "mean_anomaly_deg": 269.0181,
      "mean_motion_rev_day": 15.08839012
    }
  ]
}